53598,STARLINK-4676,2025-12-13T22:37:12.573696,2025-12-14T13:04:14.456627,53.2189,268.7946,0.0001179,98.1907,261.9219,15.08831687,-83225-5,18267,1 53598U 22104L   25347.94250664 -.00000420  00000+0 -83225-5 0  9998,2 53598  53.2189 268.7946 0001179  98.1907 261.9219 15.08831687182675
53600,STARLINK-4677,2025-12-13T22:33:23.557536,2025-12-14T13:04:14.456627,53.2189,269.4677,0.0001349,101.1957,258.9187,15.08841736,12316-3,18266,1 53600U 22104N   25347.93985599  .00001673  00000+0  12316-3 0  9993,2 53600  53.2189 269.4677 0001349 101.1957 258.9187 15.08841736182662
53601,STARLINK-4675,2025-12-13T22:53:08.087712,2025-12-14T13:04:14.456627,53.2181,268.8577,0.0001397,102.9573,257.1575,15.0882681,18218-4,18267,1 53601U 22104P   25347.95356583  .00000002  00000+0  18218-4 0  9994,2 53601  53.2181 268.8577 0001397 102.9573 257.1575 15.08826810182672
53602,STARLINK-4648,2025-12-13T23:01:45.883776,2025-12-14T13:04:14.456627,53.2191,263.9195,0.0001601,83.6744,276.443,15.08829592,61492-5,18274,1 53602U 22104Q   25347.95955884 -.00000190  00000+0  61492-5 0  9996,2 53602  53.2191 263.9195 0001601  83.6744 276.4430 15.08829592182741
53603,STARLINK-4692,2025-12-13T23:33:34.618752,2025-12-14T13:04:14.456627,53.2189,264.0507,0.000137,85.3009,274.814,15.08842666,23259-4,18274,1 53603U 22104R   25347.98165068  .00000082  00000+0  23259-4 0  9994,2 53603  53.2189 264.0507 0001370  85.3009 274.8140 15.08842666182741
53604,STARLINK-4690,2025-12-13T22:51:08.263872,2025-12-14T13:04:14.456627,53.2184,263.8714,0.0001469,91.9257,268.1904,15.08846441,-89993-4,18274,1 53604U 22104S   25347.95217898 -.00001720  00000+0 -89993-4 0  9990,2 53604  53.2184 263.8714 0001469  91.9257 268.1904 15.08846441182740
53605,STARLINK-4693,2025-12-13T22:42:31.012128,2025-12-14T13:04:14.456627,53.2193,268.818,0.0001458,105.0168,255.0986,15.08827698,-51273-5,18267,1 53605U 22104T   25347.94619227 -.00000369  00000+0 -51273-5 0  9991,2 53605  53.2193 268.8180 0001458 105.0168 255.0986 15.08827698182679
53606,STARLINK-4590,2025-12-13T23:26:17.605824,2025-12-14T13:04:14.456627,53.2168,259.0125,0.0001569,92.4319,267.6853,15.08831532,42807-4,18269,1 53606U 22104U   25347.97659266  .00000393  00000+0  42807-4 0  9999,2 53606  53.2168 259.0125 0001569  92.4319 267.6853 15.08831532182699
53607,STARLINK-4591,2025-12-13T23:17:39.860736,2025-12-14T13:04:14.456627,53.2154,263.9795,0.000134,83.3693,276.7452,15.08847011,11275-3,18274,1 53607U 22104V   25347.97060024  .00001507  00000+0  11275-3 0  9990,2 53607  53.2154 263.9795 0001340  83.3693 276.7452 15.08847011182744
53608,STARLINK-4647,2025-12-13T23:36:54.318528,2025-12-14T13:04:14.456627,53.217,259.0605,0.0001316,85.8292,274.2851,15.08835404,-20378-4,18269,1 53608U 22104W   25347.98396202 -.00000612  00000+0 -20378-4 0  9995,2 53608  53.2170 259.0605 0001316  85.8292 274.2851 15.08835404182697
53609,STARLINK-4660,2025-12-13T22:29:55.618656,2025-12-14T13:04:14.456627,53.2194,263.781,0.0001402,105.7481,254.3666,15.08824034,-12897-4,18274,1 53609U 22104X   25347.93744929 -.00000493  00000+0 -12897-4 0  9998,2 53609  53.2194 263.7810 0001402 105.7481 254.3666 15.08824034182748
53610,STARLINK-4610,2025-12-13T23:27:40.461696,2025-12-14T13:04:14.456627,53.2184,259.0183,0.0001723,101.457,258.6616,15.08832676,-50403-4,18269,1 53610U 22104Y   25347.97755164 -.00001090  00000+0 -50403-4 0  9996,2 53610  53.2184 259.0183 0001723 101.4570 258.6616 15.08832676182695
53612,STARLINK-4658,2025-12-13T23:20:58.750944,2025-12-14T13:04:14.456627,53.2161,258.9901,0.00012,90.028,270.0849,15.08840991,-62385-4,18269,1 53612U 22104AA  25347.97290221 -.00001281  00000+0 -62385-4 0  9990,2 53612  53.2161 258.9901 0001200  90.0280 270.0849 15.08840991182694
53613,STARLINK-4655,2025-12-13T23:31:35.699520,2025-12-14T13:04:14.456627,53.2165,259.0364,0.0001162,87.2997,272.8128,15.08847274,32893-3,18269,1 53613U 22104AB  25347.98027430  .00004952  00000+0  32893-3 0  9998,2 53613  53.2165 259.0364 0001162  87.2997 272.8128 15.08847274182695
53616,STARLINK-4605,2025-12-13T23:16:59.170656,2025-12-14T13:04:14.456627,53.2189,248.8094,0.0001544,98.2188,261.8979,15.08831068,-37250-4,18294,1 53616U 22104AE  25347.97012929 -.00000881  00000+0 -37250-4 0  9999,2 53616  53.2189 248.8094 0001544  98.2188 261.8979 15.08831068182942
53619,STARLINK-4609,2025-12-13T23:10:21.533664,2025-12-14T13:04:14.456627,53.2156,258.9442,0.0001368,90.4671,269.6478,15.08827744,-24310-3,18269,1 53619U 22104AH  25347.96552701 -.00004153  00000+0 -24310-3 0  9996,2 53619  53.2156 258.9442 0001368  90.4671 269.6478 15.08827744182691
53620,STARLINK-4615,2025-12-13T22:49:08.856480,2025-12-14T13:04:14.456627,53.2144,258.8545,0.0001598,89.3289,270.7886,15.08837472,85669-4,18280,1 53620U 22104AJ  25347.95079695  .00001076  00000+0  85669-4 0  9997,2 53620  53.2144 258.8545 0001598  89.3289 270.7886 15.08837472182808
53621,STARLINK-4608,2025-12-13T23:05:03.864192,2025-12-14T13:04:14.456627,53.2173,258.9224,0.0001921,78.2673,281.8534,15.08840115,10644-3,18269,1 53621U 22104AK  25347.96185028  .00001406  00000+0  10644-3 0  9994,2 53621  53.2173 258.9224 0001921  78.2673 281.8534 15.08840115182698
53622,STARLINK-4568,2025-12-13T11:09:36.017280,2025-12-14T13:04:14.456627,53.2179,260.8072,0.0001161,93.7811,266.3314,15.08843456,90741-4,18273,1 53622U 22104AL  25347.46500020  .00001157  00000+0  90741-4 0  9993,2 53622  53.2179 260.8072 0001161  93.7811 266.3314 15.08843456182730
53623,STARLINK-4573,2025-12-13T22:54:27.846144,2025-12-14T13:04:14.456627,53.2182,258.8772,0.0001502,88.2126,271.9038,15.08829576,11316-4,18280,1 53623U 22104AM  25347.95448896 -.00000108  00000+0  11316-4 0  9997,2 53623  53.2182 258.8772 0001502  88.2126 271.9038 15.08829576182806
53624,STARLINK-4596,2025-12-13T22:38:31.732512,2025-12-14T13:04:14.456627,53.2189,258.812,0.0001661,90.5633,269.555,15.08841607,98784-4,18280,1 53624U 22104AN  25347.94342283  .00001285  00000+0  98784-4 0  9990,2 53624  53.2189 258.8120 0001661  90.5633 269.5550 15.08841607182807
53626,STARLINK-4554,2025-12-13T22:22:37.814304,2025-12-14T13:04:14.456627,53.2191,258.7456,0.0001751,102.9348,257.184,15.0883142,-41055-4,18281,1 53626U 22104AQ  25347.93238211 -.00000941  00000+0 -41055-4 0  9995,2 53626  53.2191 258.7456 0001751 102.9348 257.1840 15.08831420182812
53627,STARLINK-4595,2025-12-13T22:33:14.173632,2025-12-14T13:04:14.456627,53.2176,258.789,0.0001509,90.9108,269.2057,15.08830273,13395-4,18281,1 53627U 22104AR  25347.93974738 -.00000075  00000+0  13395-4 0  9990,2 53627  53.2176 258.7890 0001509  90.9108 269.2057 15.08830273182818
53628,STARLINK-4600,2025-12-13T23:47:23.055648,2025-12-14T13:04:14.456627,53.2172,258.3994,0.0001274,83.1952,276.9185,15.08838287,11058-3,18282,1 53628U 22104AS  25347.99123907  .00001472  00000+0  11058-3 0  9995,2 53628  53.2172 258.3994 0001274  83.1952 276.9185 15.08838287182827
53629,STARLINK-4602,2025-12-13T22:27:55.159776,2025-12-14T13:04:14.456627,53.2181,258.765,0.0001351,89.3716,270.7431,15.08839841,74687-4,18281,1 53629U 22104AT  25347.93605509  .00000901  00000+0  74687-4 0  9997,2 53629  53.2181 258.7650 0001351  89.3716 270.7431 15.08839841182815
53630,STARLINK-4598,2025-12-13T23:18:24.139008,2025-12-14T13:04:14.456627,53.2186,249.0071,0.0001427,112.237,247.8774,15.08828884,-49219-4,18312,1 53630U 22104AU  25347.97111272 -.00001071  00000+0 -49219-4 0  9996,2 53630  53.2186 249.0071 0001427 112.2370 247.8774 15.08828884183123
53631,STARLINK-4599,2025-12-13T22:06:41.481216,2025-12-14T13:04:14.456627,53.2181,258.6743,0.0001272,95.1274,264.9863,15.08842991,-48870-4,18281,1 53631U 22104AV  25347.92131344 -.00001066  00000+0 -48870-4 0  9990,2 53631  53.2181 258.6743 0001272  95.1274 264.9863 15.08842991182810
53632,STARLINK-4606,2025-12-13T23:06:24.987744,2025-12-14T13:04:14.456627,53.2181,248.9522,0.0001427,94.7287,265.3868,15.08823481,-95164-4,18328,1 53632U 22104AW  25347.96278921 -.00001801  00000+0 -95164-4 0  9993,2 53632  53.2181 248.9522 0001427  94.7287 265.3868 15.08823481183284
53633,STARLINK-4593,2025-12-13T23:11:42.212256,2025-12-14T13:04:14.456627,53.2175,248.9718,0.0001286,94.9397,265.1742,15.08829219,15517-3,18295,1 53633U 22104AX  25347.96646079  .00002182  00000+0  15517-3 0  9991,2 53633  53.2175 248.9718 0001286  94.9397 265.1742 15.08829219182959
53634,STARLINK-4592,2025-12-13T22:55:45.175872,2025-12-14T13:04:14.456627,53.2167,248.9019,0.0001614,85.0901,275.0275,15.08894132,-75751-3,18328,1 53634U 22104AY  25347.95538398 -.00012342  00000+0 -75751-3 0  9992,2 53634  53.2167 248.9019 0001614  85.0901 275.0275 15.08894132183286
53635,STARLINK-4587,2025-12-14T00:00:04.000320,2025-12-14T13:04:14.456627,53.2164,248.231,0.0001689,111.7907,16.1386,15.21861003,83911-1,575,1 53635U 22104AZ  25348.00004630  .02121957  00000+0  83911-1 0  9995,2 53635  53.2164 248.2310 0001689 111.7907  16.1386 15.21861003  5754
53636,STARLINK-4586,2025-12-13T22:45:10.525536,2025-12-14T13:04:14.456627,53.217,248.8525,0.0001248,106.8758,253.2371,15.08910189,15771-2,18328,1 53636U 22104BA  25347.94803849  .00024948  00000+0  15771-2 0  9997,2 53636  53.2170 248.8525 0001248 106.8758 253.2371 15.08910189183284
53637,STARLINK-4396,2025-12-13T23:34:18.401088,2025-12-14T13:04:14.456627,53.2175,249.0627,0.0001368,88.8192,271.2957,15.0883381,21040-3,18328,1 53637U 22104BB  25347.98215742  .00003062  00000+0  21040-3 0  9992,2 53637  53.2175 249.0627 0001368  88.8192 271.2957 15.08833810183285
53638,STARLINK-4594,2025-12-13T22:18:38.150208,2025-12-14T13:04:14.456627,53.2175,248.7459,0.0001544,84.8254,275.2914,15.08840841,30391-4,18328,1 53638U 22104BC  25347.92960822  .00000196  00000+0  30391-4 0  9998,2 53638  53.2175 248.7459 0001544  84.8254 275.2914 15.08840841183285
53639,STARLINK-4422,2025-12-13T22:39:51.928992,2025-12-14T13:04:14.456627,53.2168,248.8324,0.0001696,94.8603,265.2583,15.08835661,-80171-5,18311,1 53639U 22104BD  25347.94435103 -.00000416  00000+0 -80171-5 0  9999,2 53639  53.2168 248.8324 0001696  94.8603 265.2583 15.08835661183114
